NORAD_CAT_ID,OBJECT_NAME,OBJECT_TYPE,EPOCH,MEAN_MOTION,ECCENTRICITY,INCLINATION,RA_OF_ASC_NODE,ARG_OF_PERICENTER,MEAN_ANOMALY,BSTAR,MEAN_MOTION_DOT,MEAN_MOTION_DDOT,TLE_LINE0,TLE_LINE1,TLE_LINE2,SEMIMAJOR_AXIS,PERIOD,APOGEE,PERIGEE,DECAYED
54773.0,STARLINK-5453,PAYLOAD,2023-06-25 03:24:16,15.08840734,0.0001021,53.2156,161.7609,88.3344,271.7765,7.481e-05,9.03e-06,0.0,0 STARLINK-5453,1 54773U 22175R   23176.14185996  .00000903  00000-0  74810-4 0  9991,2 54773  53.2156 161.7609 0001021  88.3344 271.7765 15.08840734 28526,6917.878,95.438,540.449,539.037,0.0
54773.0,STARLINK-5453,PAYLOAD,2023-06-25 22:28:54,15.08834583,0.0001072,53.2157,158.1922,84.018,276.0934,4.0109e-05,3.51e-06,0.0,0 STARLINK-5453,1 54773U 22175R   23176.93674589  .00000351  00000-0  40109-4 0  9990,2 54773  53.2157 158.1922 0001072  84.0180 276.0934 15.08834583 28646,6917.897,95.438,540.504,539.02,0.0
54773.0,STARLINK-5453,PAYLOAD,2023-06-27 07:51:59,15.08847945,0.0001066,53.2159,151.9472,88.268,271.8434,3.0477e-05,1.97e-06,0.0,0 STARLINK-5453,1 54773U 22175R   23178.32777759  .00000197  00000-0  30477-4 0  9993,2 54773  53.2159 151.9472 0001066  88.2680 271.8434 15.08847945 28850,6917.856,95.437,540.459,538.984,0.0
54773.0,STARLINK-5453,PAYLOAD,2023-06-28 02:56:38,15.08834209,0.0001134,53.2164,148.3797,80.6423,279.4698,3.4279e-05,2.58e-06,0.0,0 STARLINK-5453,1 54773U 22175R   23179.12266684  .00000258  00000-0  34279-4 0  9994,2 54773  53.2164 148.3797 0001134  80.6423 279.4698 15.08834209 28971,6917.898,95.438,540.548,538.979,0.0
54773.0,STARLINK-5453,PAYLOAD,2023-06-29 04:22:48,15.08840533,0.0001175,53.2162,143.6203,91.901,268.2117,2.1128e-05,4.8e-07,0.0,0 STARLINK-5453,1 54773U 22175R   23180.18250312  .00000048  00000-0  21128-4 0  9999,2 54773  53.2162 143.6203 0001175  91.9010 268.2117 15.08840533 29139,6917.879,95.438,540.557,538.931,0.0
54773.0,STARLINK-5453,PAYLOAD,2023-06-30 13:45:54,15.08835115,0.0001077,53.2167,137.3762,88.1523,271.9592,1.0031e-05,-1.28e-06,0.0,0 STARLINK-5453,1 54773U 22175R   23181.57354760 -.00000128  00000-0  10031-4 0  9996,2 54773  53.2167 137.3762 0001077  88.1523 271.9592 15.08835115 29343,6917.895,95.438,540.505,539.015,0.0
54773.0,STARLINK-5453,PAYLOAD,2023-07-01 00:53:37,15.0882772,0.0001278,53.2177,135.295,99.8645,260.2492,-4.0829e-05,-9.37e-06,0.0,0 STARLINK-5453,1 54773U 22175R   23182.03723603 -.00000937  00000-0 -40829-4 0  9991,2 54773  53.2177 135.2950 0001278  99.8645 260.2492 15.08827720 29418,6917.918,95.438,540.667,538.899,0.0
54773.0,STARLINK-5453,PAYLOAD,2023-07-01 13:36:41,15.08836073,0.000111,53.2169,132.9171,88.6472,271.4648,-6.4586e-06,-3.91e-06,0.0,0 STARLINK-5453,1 54773U 22175R   23182.56715265 -.00000391  00000-0 -64586-5 0  9995,2 54773  53.2169 132.9171 0001110  88.6472 271.4648 15.08836073 29493,6917.892,95.438,540.525,538.99,0.0
54773.0,STARLINK-5453,PAYLOAD,2023-07-02 02:19:46,15.08843784,0.0001023,53.2168,130.5378,87.6151,272.4958,3.6948e-05,3e-06,0.0,0 STARLINK-5453,1 54773U 22175R   23183.09706779  .00000300  00000-0  36948-4 0  9992,2 54773  53.2168 130.5378 0001023  87.6151 272.4958 15.08843784 29572,6917.869,95.437,540.442,539.026,0.0
54773.0,STARLINK-5453,PAYLOAD,2023-07-03 02:10:34,15.08837599,0.0001029,53.2164,126.0772,83.0528,277.0581,0.000116,1.559e-05,0.0,0 STARLINK-5453,1 54773U 22175R   23184.09067169  .00001559  00000-0  11600-3 0  9990,2 54773  53.2164 126.0772 0001029  83.0528 277.0581 15.08837599 29727,6917.888,95.438,540.465,539.041,0.0
54773.0,STARLINK-5453,PAYLOAD,2023-07-04 05:12:07,15.08842644,0.0001109,53.2166,121.0214,111.8501,248.261,0.00011031,1.468e-05,0.0,0 STARLINK-5453,1 54773U 22175R   23185.21674776  .00001468  00000-0  11031-3 0  9990,2 54773  53.2166 121.0214 0001109 111.8501 248.2610 15.08842644 29893,6917.872,95.437,540.504,538.97,0.0
54773.0,STARLINK-5453,PAYLOAD,2023-07-05 01:52:08,15.08837446,0.0001204,53.2165,117.155,95.0102,265.1028,-5.6454e-06,-3.78e-06,0.0,0 STARLINK-5453,1 54773U 22175R   23186.07787614 -.00000378  00000-0 -56454-5 0  9992,2 54773  53.2165 117.1550 0001204  95.0102 265.1028 15.08837446 30029,6917.888,95.438,540.586,538.92,0.0
54773.0,STARLINK-5453,PAYLOAD,2023-07-06 01:42:54,15.08845564,0.00013,53.2171,112.6943,95.2236,264.8904,7.537e-05,9.12e-06,0.0,0 STARLINK-5453,1 54773U 22175R   23187.07146857  .00000912  00000-0  75370-4 0  9990,2 54773  53.2171 112.6943 0001300  95.2236 264.8904 15.08845564 30174,6917.863,95.437,540.628,538.829,0.0
54773.0,STARLINK-5453,PAYLOAD,2023-07-07 04:44:28,15.08842027,0.0001269,53.2169,107.6405,86.2555,273.8582,8.0154e-05,9.88e-06,0.0,0 STARLINK-5453,1 54773U 22175R   23188.19755258  .00000988  00000-0  80154-4 0  9994,2 54773  53.2169 107.6405 0001269  86.2555 273.8582 15.08842027 30348,6917.874,95.437,540.617,538.861,0.0
54773.0,STARLINK-5453,PAYLOAD,2023-07-08 18:53:45,15.08831033,0.0001317,53.2194,100.5065,93.1917,266.9226,-1.1764e-05,-4.75e-06,0.0,0 STARLINK-5453,1 54773U 22175R   23189.78732802 -.00000475  00000-0 -11764-4 0  9994,2 54773  53.2194 100.5065 0001317  93.1917 266.9226 15.08831033 30582,6917.908,95.438,540.684,538.862,0.0
54773.0,STARLINK-5453,PAYLOAD,2023-07-09 02:50:40,15.08835423,0.0001281,53.2175,99.0178,96.3288,263.785,1.3416e-05,-7.4e-07,0.0,0 STARLINK-5453,1 54773U 22175R   23190.11852257 -.00000074  00000-0  13416-4 0  9990,2 54773  53.2175  99.0178 0001281  96.3288 263.7850 15.08835423 30635,6917.894,95.438,540.646,538.873,0.0
54773.0,STARLINK-5453,PAYLOAD,2023-07-10 10:38:22,15.08845762,0.0001232,53.218,93.071,97.6887,262.4245,4.0365e-05,3.55e-06,0.0,0 STARLINK-5453,1 54773U 22175R   23191.44331853  .00000355  00000-0  40365-4 0  9995,2 54773  53.2180  93.0710 0001232  97.6887 262.4245 15.08845762 30835,6917.863,95.437,540.58,538.875,0.0
54773.0,STARLINK-5453,PAYLOAD,2023-07-10 18:35:19,15.08825293,0.0001316,53.2178,91.5843,98.2192,261.895,0.00024904,3.676e-05,0.0,0 STARLINK-5453,1 54773U 22175R   23191.77452874  .00003676  00000-0  24904-3 0  9997,2 54773  53.2178  91.5843 0001316  98.2192 261.8950 15.08825293 30889,6917.925,95.438,540.701,538.88,0.0
54773.0,STARLINK-5453,PAYLOAD,2023-07-11 02:32:14,15.08847936,0.0001595,53.2185,90.0983,104.4532,255.6638,8.3827e-05,1.047e-05,0.0,0 STARLINK-5453,1 54773U 22175R   23192.10571795  .00001047  00000-0  83827-4 0  9999,2 54773  53.2185  90.0983 0001595 104.4532 255.6638 15.08847936 30931,6917.856,95.437,540.825,538.618,0.0
54773.0,STARLINK-5453,PAYLOAD,2023-07-12 02:23:01,15.08844521,0.0001201,53.2167,85.6358,94.4546,265.6583,6.0209e-05,6.71e-06,0.0,0 STARLINK-5453,1 54773U 22175R   23193.09931983  .00000671  00000-0  60209-4 0  9998,2 54773  53.2167  85.6358 0001201  94.4546 265.6583 15.08844521 31088,6917.867,95.437,540.562,538.901,0.0
54773.0,STARLINK-5453,PAYLOAD,2023-07-14 02:04:35,15.08849153,0.0001339,53.2184,76.7129,92.4446,267.6699,-4.5835e-05,-1.018e-05,0.0,0 STARLINK-5453,1 54773U 22175R   23195.08651924 -.00001018  00000-0 -45835-4 0  9999,2 54773  53.2184  76.7129 0001339  92.4446 267.6699 15.08849153 31382,6917.852,95.437,540.644,538.791,0.0
54773.0,STARLINK-5453,PAYLOAD,2023-07-15 16:13:51,15.08834525,0.0001116,53.2182,69.5765,101.9019,258.2098,1.9145e-06,-2.57e-06,0.0,0 STARLINK-5453,1 54773U 22175R   23196.67628849 -.00000257  00000-0  19145-5 0  9994,2 54773  53.2182  69.5765 0001116 101.9019 258.2098 15.08834525 31624,6917.897,95.438,540.534,538.99,0.0
54773.0,STARLINK-5453,PAYLOAD,2023-07-16 01:46:09,15.08842076,0.0001043,53.2179,67.7941,94.0704,266.0408,5.1309e-05,5.29e-06,0.0,0 STARLINK-5453,1 54773U 22175R   23197.07372311  .00000529  00000-0  51309-4 0  9997,2 54773  53.2179  67.7941 0001043  94.0704 266.0408 15.08842076 31686,6917.874,95.437,540.461,539.018,0.0
54773.0,STARLINK-5453,PAYLOAD,2023-07-16 08:07:42,15.08838089,0.0001023,53.2177,66.6043,91.4945,268.6164,1.009e-05,-1.27e-06,0.0,0 STARLINK-5453,1 54773U 22175R   23197.33868721 -.00000127  00000-0  10090-4 0  9998,2 54773  53.2177  66.6043 0001023  91.4945 268.6164 15.08838089 31722,6917.886,95.438,540.459,539.044,0.0
54773.0,STARLINK-5453,PAYLOAD,2023-07-17 23:52:20,15.08852737,0.0001022,53.2182,59.1724,102.9412,257.1694,0.00025735,3.812e-05,0.0,0 STARLINK-5453,1 54773U 22175R   23198.99467808  .00003812  00000-0  25735-3 0  9996,2 54773  53.2182  59.1724 0001022 102.9412 257.1694 15.08852737 31971,6917.841,95.437,540.413,538.999,0.0
54773.0,STARLINK-5453,PAYLOAD,2023-07-18 17:21:35,15.08838664,0.0001028,53.2165,55.9012,82.4591,277.6518,0.00013665,1.888e-05,0.0,0 STARLINK-5453,1 54773U 22175R   23199.72332990  .00001888  00000-0  13665-3 0  9991,2 54773  53.2165  55.9012 0001028  82.4591 277.6518 15.08838664 32080,6917.884,95.438,540.461,539.038,0.0
54773.0,STARLINK-5453,PAYLOAD,2023-07-19 17:12:23,15.08833242,0.0001127,53.216,51.4419,78.0425,282.0693,-4.4085e-05,-9.89e-06,0.0,0 STARLINK-5453,1 54773U 22175R   23200.71693429 -.00000989  00000-0 -44085-4 0  9994,2 54773  53.2160  51.4419 0001127  78.0425 282.0693 15.08833242 32232,6917.901,95.438,540.546,538.986,0.0
54773.0,STARLINK-5453,PAYLOAD,2023-07-20 23:24:42,15.08850986,9.17e-05,53.2172,45.7887,82.1297,277.9799,0.00031128,4.671e-05,0.0,0 STARLINK-5453,1 54773U 22175R   23201.97548870  .00004671  00000-0  31128-3 0  9995,2 54773  53.2172  45.7887 0000917  82.1297 277.9799 15.08850986 32424,6917.847,95.437,540.346,539.077,0.0
54773.0,STARLINK-5453,PAYLOAD,2023-07-21 15:18:33,15.08844976,8.58e-05,53.2167,42.8139,85.5042,274.6048,0.00012289,1.669e-05,0.0,0 STARLINK-5453,1 54773U 22175R   23202.63789067  .00001669  00000-0  12289-3 0  9995,2 54773  53.2167  42.8139 0000858  85.5042 274.6048 15.08844976 32529,6917.865,95.437,540.324,539.137,0.0
54773.0,STARLINK-5453,PAYLOAD,2023-07-23 21:21:40,15.08835511,9.49e-05,53.2173,32.7055,90.4865,269.6235,-4.6797e-05,-1.032e-05,0.0,0 STARLINK-5453,1 54773U 22175R   23204.89005441 -.00001032  00000-0 -46797-4 0  9990,2 54773  53.2173  32.7055 0000949  90.4865 269.6235 15.08835511 35025,6917.894,95.438,540.416,539.103,0.0
